[{"OBJECT_NAME":"STARLINK-32609","OBJECT_ID":"2024-207T","EPOCH":"2026-03-09T13:28:48.920448","MEAN_MOTION":15.27585596,"ECCENTRICITY":0.00036122,"INCLINATION":42.9994,"RA_OF_ASC_NODE":282.3633,"ARG_OF_PERICENTER":297.0626,"MEAN_ANOMALY":62.9857,"EPHEMERIS_TYPE":0,"CLASSIFICATION_TYPE":"U","NORAD_CAT_ID":61929,"ELEMENT_SET_NO":999,"REV_AT_EPOCH":7470,"BSTAR":0.0010394578,"MEAN_MOTION_DOT":0.0002846,"MEAN_MOTION_DDOT":0},{"OBJECT_NAME":"KIRARI (OICETS)","OBJECT_ID":"2005-031A","EPOCH":"2026-03-09T15:02:18.043872","MEAN_MOTION":15.22934858,"ECCENTRICITY":0.0019783,"INCLINATION":98.0768,"RA_OF_ASC_NODE":316.1697,"ARG_OF_PERICENTER":5.9068,"MEAN_ANOMALY":354.2396,"EPHEMERIS_TYPE":0,"CLASSIFICATION_TYPE":"U","NORAD_CAT_ID":28809,"ELEMENT_SET_NO":999,"REV_AT_EPOCH":12344,"BSTAR":0.00027776,"MEAN_MOTION_DOT":6.472e-5,"MEAN_MOTION_DDOT":0}]
